$$SOE
2459580.500000000, A.D. 2022-Jan-01 00:00:00.0000, -4.253097193768629E+07, 2.852118589147869E+08, 8.726239083607166E+07,
2459587.500000000, A.D. 2022-Jan-08 00:00:00.0000, -5.471586339777653E+07, 2.831123446651489E+08, 8.538744805097352E+07,
2459594.500000000, A.D. 2022-Jan-15 00:00:00.0000, -6.680311896249138E+07, 2.805075488115547E+08, 8.336011245505804E+07,
2459601.500000000, A.D. 2022-Jan-22 00:00:00.0000, -7.877048463082837E+07, 2.773992734354863E+08, 8.118315645867142E+07,
2459608.500000000, A.D. 2022-Jan-29 00:00:00.0000, -9.059564831750175E+07, 2.737901844587879E+08, 7.885963450641865E+07,
2459615.500000000, A.D. 2022-Feb-05 00:00:00.0000, -1.022562742599306E+08, 2.696838281430495E+08, 7.639288551448686E+07,
2459622.500000000, A.D. 2022-Feb-12 00:00:00.0000, -1.137300371535053E+08, 2.650846459526756E+08, 7.378653466229048E+07,
2459629.500000000, A.D. 2022-Feb-19 00:00:00.0000, -1.249946573998850E+08, 2.599979900269746E+08, 7.104449481525029E+07,
2459636.500000000, A.D. 2022-Feb-26 00:00:00.0000, -1.360279388142889E+08, 2.544301383890797E+08, 6.817096758439797E+07,
2459643.500000000, A.D. 2022-Mar-05 00:00:00.0000, -1.468078086619375E+08, 2.483883090979654E+08, 6.517044389223343E+07,
2459650.500000000, A.D. 2022-Mar-12 00:00:00.0000, -1.573123598250577E+08, 2.418806730885262E+08, 6.204770395209950E+07,
2459657.500000000, A.D. 2022-Mar-19 00:00:00.0000, -1.675198950401357E+08, 2.349163655287674E+08, 5.880781658936737E+07,
2459664.500000000, A.D. 2022-Mar-26 00:00:00.0000, -1.774089731777631E+08, 2.275054954795995E+08, 5.545613783390716E+07,
2459671.500000000, A.D. 2022-Apr-02 00:00:00.0000, -1.869584574734509E+08, 2.196591535836556E+08, 5.199830870461729E+07,
2459678.500000000, A.D. 2022-Apr-09 00:00:00.0000, -1.961475653926588E+08, 2.113894175615889E+08, 4.844025209273964E+07,
2459685.500000000, A.D. 2022-Apr-16 00:00:00.0000, -2.049559197060278E+08, 2.027093559354362E+08, 4.478816869614806E+07,
2459692.500000000, A.D. 2022-Apr-23 00:00:00.0000, -2.133636019566840E+08, 1.936330308242468E+08, 4.104853214272548E+07,
2459699.500000000, A.D. 2022-Apr-30 00:00:00.0000, -2.213512100802598E+08, 1.841754973326124E+08, 3.722808322656678E+07,
2459706.500000000, A.D. 2022-May-07 00:00:00.0000, -2.288999169611937E+08, 1.743527973208518E+08, 3.333382274949956E+07,
2459713.500000000, A.D. 2022-May-14 00:00:00.0000, -2.359915283510391E+08, 1.641819503368264E+08, 2.937300302510247E+07,
2459720.500000000, A.D. 2022-May-21 00:00:00.0000, -2.426085419895116E+08, 1.536809422252356E+08, 2.535311823916561E+07,
2459727.500000000, A.D. 2022-May-28 00:00:00.0000, -2.487342081796005E+08, 1.428687102346683E+08, 2.128189358268244E+07,
2459734.500000000, A.D. 2022-Jun-04 00:00:00.0000, -2.543525912700905E+08, 1.317651240910581E+08, 1.716727306111245E+07,
2459741.500000000, A.D. 2022-Jun-11 00:00:00.0000, -2.594486316011851E+08, 1.203909628310024E+08, 1.301740592937884E+07,
2459748.500000000, A.D. 2022-Jun-18 00:00:00.0000, -2.640082075455855E+08, 1.087678872184493E+08, 8.840631722047001E+06,
2459755.500000000, A.D. 2022-Jun-25 00:00:00.0000, -2.680181972564473E+08, 9.691840754497665E+07, 4.645463855468839E+06,
2459762.500000000, A.D. 2022-Jul-02 00:00:00.0000, -2.714665395995196E+08, 8.486584660816081E+07, 4.405717778357454E+05,
2459769.500000000, A.D. 2022-Jul-09 00:00:00.0000, -2.743422934623742E+08, 7.263429793593358E+07, -3.765238347918652E+06,
2459776.500000000, A.D. 2022-Jul-16 00:00:00.0000, -2.766356950532470E+08, 6.024858026450718E+07, -7.963044314617839E+06,
2459783.500000000, A.D. 2022-Jul-23 00:00:00.0000, -2.783382149268359E+08, 4.773418830930948E+07, -1.214382965201008E+07,
2459790.500000000, A.D. 2022-Jul-30 00:00:00.0000, -2.794426141836519E+08, 3.511723648262577E+07, -1.629850675168296E+07,
2459797.500000000, A.D. 2022-Aug-06 00:00:00.0000, -2.799429957560762E+08, 2.242439626909319E+07, -2.041794154801938E+07,
2459804.500000000, A.D. 2022-Aug-13 00:00:00.0000, -2.798348510891464E+08, 9.682830120214641E+06, -2.449297936927690E+07,
2459811.500000000, A.D. 2022-Aug-20 00:00:00.0000, -2.791151032780588E+08, -3.079878490046883E+06, -2.851447175400790E+07,
2459818.500000000, A.D. 2022-Aug-27 00:00:00.0000, -2.777821461092808E+08, -1.583579936885270E+07, -3.247330418344084E+07,
2459825.500000000, A.D. 2022-Sep-03 00:00:00.0000, -2.758358782793151E+08, -2.855673410802501E+07, -3.636042462989288E+07,
2459832.500000000, A.D. 2022-Sep-10 00:00:00.0000, -2.732777322351915E+08, -4.121429844080796E+07, -4.016687277856500E+07,
2459839.500000000, A.D. 2022-Sep-17 00:00:00.0000, -2.701106971684359E+08, -5.378000807916581E+07, -4.388380976200581E+07,
2459846.500000000, A.D. 2022-Sep-24 00:00:00.0000, -2.663393356999801E+08, -6.622536765568160E+07, -4.750254824114756E+07,
2459853.500000000, A.D. 2022-Oct-01 00:00:00.0000, -2.619697936579865E+08, -7.852196231388026E+07, -5.101458267073235E+07,
2459860.500000000, A.D. 2022-Oct-08 00:00:00.0000, -2.570098022329996E+08, -9.064155089553036E+07, -5.441161954868345E+07,
2459867.500000000, A.D. 2022-Oct-15 00:00:00.0000, -2.514686731861218E+08, -1.025561589473118E+08, -5.768560726047954E+07,
2459874.500000000, A.D. 2022-Oct-22 00:00:00.0000, -2.453572890901275E+08, -1.142381726121199E+08, -6.082876523842840E+07,
2459881.500000000, A.D. 2022-Oct-29 00:00:00.0000, -2.386880859665765E+08, -1.256604353557021E+08, -6.383361264974362E+07,
2459888.500000000, A.D. 2022-Nov-05 00:00:00.0000, -2.314750261503607E+08, -1.367963441339741E+08, -6.669299635283125E+07,
2459895.500000000, A.D. 2022-Nov-12 00:00:00.0000, -2.237335633553385E+08, -1.476199430769712E+08, -6.940011761829868E+07,
2459902.500000000, A.D. 2022-Nov-19 00:00:00.0000, -2.154806007561301E+08, -1.581060149845726E+08, -7.194855742478400E+07,
2459909.500000000, A.D. 2022-Nov-26 00:00:00.0000, -2.067344420065553E+08, -1.682301703712569E+08, -7.433230020160659E+07,
2459916.500000000, A.D. 2022-Dec-03 00:00:00.0000, -1.975147352911168E+08, -1.779689334150093E+08, -7.654575586113724E+07,
2459923.500000000, A.D. 2022-Dec-10 00:00:00.0000, -1.878424106949075E+08, -1.872998241508617E+08, -7.858377995694673E+07,
2459930.500000000, A.D. 2022-Dec-17 00:00:00.0000, -1.777396112607900E+08, -1.962014363260263E+08, -8.044169181600261E+07,
2459937.500000000, A.D. 2022-Dec-24 00:00:00.0000, -1.672296180806668E+08, -2.046535104198858E+08, -8.211529052240950E+07,
2459944.500000000, A.D. 2022-Dec-31 00:00:00.0000, -1.563367695801784E+08, -2.126370012109840E+08, -8.360086866162080E+07,
2459951.500000000, A.D. 2023-Jan-07 00:00:00.0000, -1.450863754455589E+08, -2.201341384748841E+08, -8.489522366677853E+07,
2459958.500000000, A.D. 2023-Jan-14 00:00:00.0000, -1.335046277755079E+08, -2.271284799229884E+08, -8.599566647909725E+07,
2459965.500000000, A.D. 2023-Jan-21 00:00:00.0000, -1.216185107532485E+08, -2.336049592300612E+08, -8.690002768119441E+07,
2459972.500000000, A.D. 2023-Jan-28 00:00:00.0000, -1.094557058508326E+08, -2.395499290965300E+08, -8.760666144358668E+07,
2459979.500000000, A.D. 2023-Feb-04 00:00:00.0000, -9.704449347475694E+07, -2.449511961411375E+08, -8.811444703158313E+07,
2459986.500000000, A.D. 2023-Feb-11 00:00:00.0000, -8.441365355514137E+07, -2.497980477112988E+08, -8.842278775985073E+07,
2459993.500000000, A.D. 2023-Feb-18 00:00:00.0000, -7.159236584548832E+07, -2.540812713997788E+08, -8.853160751387985E+07,
2460000.500000000, A.D. 2023-Feb-25 00:00:00.0000, -5.861011036088435E+07, -2.577931674649897E+08, -8.844134495334181E+07,
2460007.500000000, A.D. 2023-Mar-04 00:00:00.0000, -4.549656851876237E+07, -2.609275542406591E+08, -8.815294550261942E+07,
2460014.500000000, A.D. 2023-Mar-11 00:00:00.0000, -3.228152558947897E+07, -2.634797667080439E+08, -8.766785125010778E+07,
2460021.500000000, A.D. 2023-Mar-18 00:00:00.0000, -1.899477501285313E+07, -2.654466485173776E+08, -8.698798890238994E+07,
2460028.500000000, A.D. 2023-Mar-25 00:00:00.0000, -5.666024941123880E+06, -2.668265377964768E+08, -8.611575596561134E+07,
2460035.500000000, A.D. 2023-Apr-01 00:00:00.0000, 7.675192900742590E+06, -2.676192466900039E+08, -8.505400531917717E+07,
2460042.500000000, A.D. 2023-Apr-08 00:00:00.0000, 2.099961095959026E+07, -2.678260337813902E+08, -8.380602819055754E+07,
2460049.500000000, A.D. 2023-Apr-15 00:00:00.0000, 3.427830745998871E+07, -2.674495709118726E+08, -8.237553557689525E+07,
2460056.500000000, A.D. 2023-Apr-22 00:00:00.0000, 4.748278333394475E+07, -2.664939078831810E+08, -8.076663870206548E+07,
2460063.500000000, A.D. 2023-Apr-29 00:00:00.0000, 6.058503692129619E+07, -2.649644332511345E+08, -7.898382875318573E+07,
2460070.500000000, A.D. 2023-May-06 00:00:00.0000, 7.355763444792756E+07, -2.628678299042479E+08, -7.703195576587300E+07,
2460077.500000000, A.D. 2023-May-13 00:00:00.0000, 8.637377512863104E+07, -2.602120268000355E+08, -7.491620681301443E+07,
2460084.500000000, A.D. 2023-May-20 00:00:00.0000, 9.900735100803617E+07, -2.570061478283786E+08, -7.264208372421741E+07,
2460091.500000000, A.D. 2023-May-27 00:00:00.0000, 1.114330016645096E+08, -2.532604583043686E+08, -7.021538051461810E+07,
2460098.500000000, A.D. 2023-Jun-03 00:00:00.0000, 1.236261638135760E+08, -2.489863095255528E+08, -6.764216067540284E+07,
2460105.500000000, A.D. 2023-Jun-10 00:00:00.0000, 1.355631158590077E+08, -2.441960818485042E+08, -6.492873446774071E+07,
2460112.500000000, A.D. 2023-Jun-17 00:00:00.0000, 1.472210175514990E+08, -2.389031267646758E+08, -6.208163636264755E+07,
2460119.500000000, A.D. 2023-Jun-24 00:00:00.0000, 1.585779451877562E+08, -2.331217083236283E+08, -5.910760277370398E+07,
2460126.500000000, A.D. 2023-Jul-01 00:00:00.0000, 1.696129227466842E+08, -2.268669434602829E+08, -5.601355014941153E+07,
2460133.500000000, A.D. 2023-Jul-08 00:00:00.0000, 1.803059474567951E+08, -2.201547407592517E+08, -5.280655330148344E+07,
2460140.500000000, A.D. 2023-Jul-15 00:00:00.0000, 1.906380087095439E+08, -2.130017408053560E+08, -4.949382416668060E+07,
$$EOE